STARLINK-36694          
1 67653U 26022F   26045.25002315 -.00050444  00000+0 -26383-3 0  9997
2 67653  97.2817  78.0644 0001298  90.8577  85.9571 15.80841199  3125
STARLINK-36620          
1 67654U 26022G   26045.25002315 -.00536196  00000+0 -29475-2 0  9995
2 67654  97.2812  78.0661 0001792  86.1963  96.3373 15.81007664  3124
STARLINK-36720          
1 67655U 26022H   26045.25002315 -.00072785  00000+0 -38189-3 0  9998
2 67655  97.2814  78.0695 0000992  88.1620 101.1733 15.80846637  3122
STARLINK-36688          
1 67656U 26022J   26045.25002315 -.00092941  00000+0 -48864-3 0  9996
2 67656  97.2809  78.0707 0001867  92.8258 101.4339 15.80859365  3129
STARLINK-36706          
1 67657U 26022K   26045.25002315  .00107938  00000+0  55919-3 0  9997
2 67657  97.2807  78.0727 0000487  43.2913 156.7176 15.80742363  3092
STARLINK-36701          
1 67658U 26022L   26045.25002315 -.00019469  00000+0 -10113-3 0  9998
2 67658  97.2809  78.0762 0001378  63.6986 142.7245 15.80815006  3121
STARLINK-36642          
1 67659U 26022M   26045.25002315 -.00025645  00000+0 -13353-3 0  9991
2 67659  97.2810  78.0783 0000655  84.2195 126.8428 15.80817819  3125
STARLINK-36673          
1 67660U 26022N   26045.25002315 -.00269447  00000+0 -14399-2 0  9993
2 67660  97.2806  78.0801 0001006  92.7982 124.6263 15.80965459  3129
STARLINK-36674          
1 67661U 26022P   26045.25002315 -.00461771  00000+0 -25063-2 0  9998
2 67661  97.2807  78.0829 0001483  88.1429 133.9465 15.81102395  3125
STARLINK-36700          
1 67662U 26022Q   26045.25002315 -.01143175  00000+0 -64042-2 0  9995
2 67662  97.2805  78.0880 0001437  88.1655 145.8618 15.81682828  3127
STARLINK-36675          
1 67663U 26022R   26045.25002315 -.00863696  00000+0 -48467-2 0  9995
2 67663  97.2805  78.0846 0001817  66.1176 162.0134 15.81370058  3129
STARLINK-36404          
1 67664U 26022S   26045.25002315 -.01459662  00000+0 -81299-2 0  9991
2 67664  97.2797  78.0894 0001473  87.8645 152.1573 15.82019306  3092
